{"fetched_at":"2026-07-24T07:06:52.598Z","source":"https://celestrak.org/NORAD/elements/gp.php?NAME=SPOT&FORMAT=JSON","constellation":"spot","records":[{"OBJECT_NAME":"SPOT 6","OBJECT_ID":"2012-047A","EPOCH":"2026-07-23T19:57:17.843328","CLASSIFICATION_TYPE":"U","MEAN_MOTION":14.58541953,"ECCENTRICITY":0.0001151,"INCLINATION":98.2101,"RA_OF_ASC_NODE":271.7074,"ARG_OF_PERICENTER":92.7623,"MEAN_ANOMALY":267.3708,"EPHEMERIS_TYPE":0,"NORAD_CAT_ID":38755,"ELEMENT_SET_NO":999,"REV_AT_EPOCH":73839,"BSTAR":0.00005287,"MEAN_MOTION_DOT":0.000002,"MEAN_MOTION_DDOT":0},{"OBJECT_NAME":"SPOT 7","OBJECT_ID":"2014-034A","EPOCH":"2026-07-23T19:44:52.857600","CLASSIFICATION_TYPE":"U","MEAN_MOTION":14.6098615,"ECCENTRICITY":0.0001692,"INCLINATION":98.061,"RA_OF_ASC_NODE":266.3668,"ARG_OF_PERICENTER":93.6773,"MEAN_ANOMALY":266.4622,"EPHEMERIS_TYPE":0,"NORAD_CAT_ID":40053,"ELEMENT_SET_NO":999,"REV_AT_EPOCH":64248,"BSTAR":0.000084639,"MEAN_MOTION_DOT":0.0000037,"MEAN_MOTION_DDOT":0}]}
