SPOT 6                  
1 38755U 12047A   26204.83145652  .00000200  00000+0  52870-4 0  9997
2 38755  98.2101 271.7074 0001151  92.7623 267.3708 14.58541953738394
SPOT 7                  
1 40053U 14034A   26204.82283400  .00000370  00000+0  84639-4 0  9998
2 40053  98.0610 266.3668 0001692  93.6773 266.4622 14.60986150642480
